SatCatId,ObjectName,LaunchYear,OrbitalPeriod,LaunchMass,StatusCode,Inclination,Status,UcsData,OrbitClassEstimated,LaunchSiteCountry,Owner,UseType,Purpose,LaunchVehicleClass,TLE1,TLE2,MeanMotion,Eccentricity,OrbitClass
45776,STARLINK-1489,2020,89.01,227.0,P,53.02,Active,1,LEO,USA,USA,Commercial,Communications,Falcon,1 45776U 20038AY  25169.55223584  .02194678  11945-4  79082-3 0  9999,2 45776  53.0185 200.1042 0009048 340.2297  97.5823 16.24040242279490,16.24040242,0.0009048,LEO
45778,STARLINK-1491,2020,91.24,227.0,P,53.03,Active,1,LEO,USA,USA,Commercial,Communications,Falcon,1 45778U 20038BA  25169.45871075  .00116850  00000+0  64420-3 0  9993,2 45778  53.0332 229.9697 0006727 310.0908  49.9522 15.78821228277940,15.78821228,0.0006727,LEO
45780,STARLINK-1496,2020,95.59,227.0,+,53.06,Active,1,LEO,USA,USA,Commercial,Communications,Falcon,1 45780U 20038BC  25169.62492328  .00000834  00000+0  74904-4 0  9998,2 45780  53.0558 302.0518 0001405  95.0275 265.0875 15.06391603276944,15.06391603,0.0001405,LEO
45781,STARLINK-1497,2020,94.05,227.0,P,53.05,Active,1,LEO,USA,USA,Commercial,Communications,Falcon,1 45781U 20038BD  25169.48647341  .00023184  00000+0  76662-3 0  9995,2 45781  53.0485 279.9230 0005459 163.4911 196.6268 15.31260504277250,15.31260504,0.0005459,LEO
45784,STARLINK-1510,2020,93.49,227.0,P,53.04,Active,1,LEO,USA,USA,Commercial,Communications,Falcon,1 45784U 20038BG  25169.51122486  .00048118  00000+0  11722-2 0  9999,2 45784  53.0404 268.3675 0002116 132.5677 227.5505 15.40464964277425,15.40464964,0.0002116,LEO
45786,STARLINK-1513,2020,95.59,227.0,+,53.06,Active,1,LEO,USA,USA,Commercial,Communications,Falcon,1 45786U 20038BJ  25169.52170275 -.00001541  00000+0 -84570-4 0  9995,2 45786  53.0534 302.5109 0001153  91.5708 268.5413 15.06404475276945,15.06404475,0.0001153,LEO
45794,GAOFEN-9 03,2020,94.45,1000.0,+,97.5,Active,1,LEO,PRC,China,Government,Earth Observation,Long March,1 45794U 20039A   25169.60101608  .00005338  00000+0  21890-3 0  9999,2 45794  97.4963 295.1871 0012614 285.5249  74.4596 15.24618333278223,15.24618333,0.0012614,LEO
45807,BEIDOU-3 G3,2020,1436.11,800.0,+,1.56,Active,1,GSO,PRC,China,Government/Military,Navigation (Global or Regional Positioning),Long March,1 45807U 20040A   25169.62566208 -.00000343  00000+0  00000+0 0  9997,2 45807   1.5641  64.1197 0004815 352.6228 186.1711  1.00269521 18423,1.00269521,0.0004815,GSO
45854,NAVSTAR 79 (USA 304),2020,717.97,2300.0,+,56.41,Active,1,MEO,USA,USA,Commercial/Military,Navigation (Global or Regional Positioning),Falcon,1 45854U 20041A   25168.02336147 -.00000057  00000+0  00000+0 0  9992,2 45854  56.4160  43.1455 0053446 199.0113 343.7166  2.00566475 36710,2.00566475,0.0053446,MEO
45856,GAOFEN DUOMO (GFDM),2020,97.51,-1.0,+,97.82,Active,1,LEO,PRC,China,Government,Earth Observation,Long March,1 45856U 20042A   25169.57390453  .00000713  00000+0  10875-3 0  9999,2 45856  97.8240 236.5970 0012673 164.2648 195.8958 14.76758488267347,14.76758488,0.0012673,LEO
45859,SHIYAN-6 02 (SY-6 02),2020,98.59,-1.0,+,98.19,Active,1,LEO,PRC,China,Government,Space Science,Long March,1 45859U 20043A   25169.50131032  .00000220  00000+0  50738-4 0  9998,2 45859  98.1913 179.6421 0128315 282.9313  75.7583 14.60545702263765,14.60545702,0.0128315,LEO
45863,APSTAR-6D,2020,1436.04,5550.0,+,0.04,Active,1,GSO,PRC,China,Commercial,Communications,Long March,1 45863U 20045A   25168.67483161 -.00000307  00000+0  00000+0 0  9994,2 45863   0.0419  84.6251 0001750  31.5052 167.0535  1.00264287 18205,1.00264287,0.000175,GEO
45920,KOREASAT 116,2020,1436.13,-1.0,+,0.01,Active,1,GSO,USA,South Korea,Military,Communications,Falcon,1 45920U 20048A   25169.59811499 -.00000351  00000+0  00000+0 0  9991,2 45920   0.0237 294.7067 0001180 196.7265 107.1632  1.00268900 17997,1.002689,0.000118,GEO
45939,ZINYUAN-3,2020,94.65,2630.0,+,97.33,Active,1,LEO,PRC,China,Government,Earth Observation,Long March,1 45939U 20051A   25169.59691723  .00004105  00000+0  18607-3 0  9997,2 45939  97.3259 243.0406 0003578 189.2318 170.8853 15.21387861272062,15.21387861,0.0003578,LEO
45985,EXPRESS 103,2020,1436.16,2150.0,+,0.02,Active,1,GSO,Kazakhstan,Russia/USSR,Commercial,Communications,Proton,1 45985U 20053A   25169.59420537 -.00000270  00000+0  00000+0 0  9997,2 45985   0.0148 338.9029 0000437 312.2643 286.3283  1.00272609 18003,1.00272609,4.37e-05,GEO
45986,EXPRESS 80,2020,1436.14,2150.0,+,0.03,Active,1,GSO,Kazakhstan,Russia/USSR,Commercial,Communications,Proton,1 45986U 20053B   25169.03750885 -.00000124  00000+0  00000+0 0  9997,2 45986   0.0207 332.1896 0001617 224.6877 163.1173  1.00270854 17980,1.00270854,0.0001617,GEO
46025,GAOFEN-9 04,2020,94.23,1000.0,+,97.29,Active,1,LEO,PRC,China,Government,Earth Observation,Long March,1 46025U 20054A   25169.55563274  .00009708  00000+0  35487-3 0  9991,2 46025  97.2885 240.0602 0008576 333.0756  27.0038 15.28252797270664,15.28252797,0.0008576,LEO
46027,STARLINK-1522,2020,95.59,260.0,+,53.05,Active,1,LEO,USA,USA,Commercial,Communications,Falcon,1 46027U 20055A   25169.43601264  .00000385  00000+0  44765-4 0  9995,2 46027  53.0541 232.8993 0001253  90.6080 269.5052 15.06391252269054,15.06391252,0.0001253,LEO
46028,STARLINK-1523,2020,95.59,260.0,+,53.05,Active,1,LEO,USA,USA,Commercial,Communications,Falcon,1 46028U 20055B   25169.45075295  .00002906  00000+0  21387-3 0  9992,2 46028  53.0530 232.8320 0001279  91.1508 268.9627 15.06407279269076,15.06407279,0.0001279,LEO
46029,STARLINK-1526,2020,95.59,260.0,+,53.05,Active,1,LEO,USA,USA,Commercial,Communications,Falcon,1 46029U 20055C   25169.44335936  .00010354  00000+0  71236-3 0  9997,2 46029  53.0527 232.8642 0001173  88.8596 271.2528 15.06433192269062,15.06433192,0.0001173,LEO
46032,STARLINK-1555,2020,95.59,260.0,+,53.05,Active,1,LEO,USA,USA,Commercial,Communications,Falcon,1 46032U 20055F   25169.49498201  .00001147  00000+0  95874-4 0  9996,2 46032  53.0549 232.6387 0001382  92.9060 267.2087 15.06399326269074,15.06399326,0.0001382,LEO
46033,STARLINK-1556,2020,95.59,260.0,+,53.05,Active,1,LEO,USA,USA,Commercial,Communications,Falcon,1 46033U 20055G   25169.47655720 -.00002499  00000+0 -14898-3 0  9995,2 46033  53.0552 232.7194 0001452  89.3391 270.7764 15.06390090269048,15.0639009,0.0001452,LEO
46034,STARLINK-1557,2020,95.59,260.0,+,53.05,Active,1,LEO,USA,USA,Commercial,Communications,Falcon,1 46034U 20055H   25169.48023671 -.00000663  00000+0 -25598-4 0  9992,2 46034  53.0533 232.7017 0001418  89.7403 270.3748 15.06393000269044,15.06393,0.0001418,LEO
46035,STARLINK-1558,2020,95.59,260.0,+,53.05,Active,1,LEO,USA,USA,Commercial,Communications,Falcon,1 46035U 20055J   25169.48760962 -.00000772  00000+0 -32926-4 0  9998,2 46035  53.0530 232.6655 0001223  92.3050 267.8079 15.06389587269077,15.06389587,0.0001223,LEO
46036,STARLINK-1560,2020,95.59,260.0,+,53.05,Active,1,LEO,USA,USA,Commercial,Communications,Falcon,1 46036U 20055K   25169.47287040 -.00000978  00000+0 -46768-4 0  9996,2 46036  53.0544 232.7325 0001086  89.6464 270.4649 15.06393151269078,15.06393151,0.0001086,LEO
46038,STARLINK-1567,2020,95.59,260.0,+,53.05,Active,1,LEO,USA,USA,Commercial,Communications,Falcon,1 46038U 20055M   25169.48394008  .00001015  00000+0  87032-4 0  9992,2 46038  53.0551 232.6837 0001199  96.4884 263.6241 15.06387676269068,15.06387676,0.0001199,LEO
46039,STARLINK-1569,2020,95.59,260.0,+,53.05,Active,1,LEO,USA,USA,Commercial,Communications,Falcon,1 46039U 20055N   25169.49129494 -.00001326  00000+0 -70138-4 0  9995,2 46039  53.0530 232.6520 0001225  84.9976 275.1153 15.06390765269062,15.06390765,0.0001225,LEO
46043,STARLINK-1582,2020,95.59,260.0,+,53.05,Active,1,LEO,USA,USA,Commercial,Communications,Falcon,1 46043U 20055S   25169.49867466  .00000829  00000+0  74542-4 0  9996,2 46043  53.0535 232.6206 0001094  78.9484 281.1627 15.06397951269061,15.06397951,0.0001094,LEO
46045,STARLINK-1591,2020,95.59,260.0,+,53.05,Active,1,LEO,USA,USA,Commercial,Communications,Falcon,1 46045U 20055U   25169.45811814  .00000013  00000+0  19798-4 0  9997,2 46045  53.0524 232.7972 0001272  94.3921 265.7213 15.06399343269042,15.06399343,0.0001272,LEO
46047,STARLINK-1524,2020,95.6,260.0,+,53.05,Active,1,LEO,USA,USA,Commercial,Communications,Falcon,1 46047U 20055W   25169.41112333  .00001529  00000+0  12154-3 0  9996,2 46047  53.0539 223.0136 0001150  86.6623 273.4498 15.06396075269199,15.06396075,0.000115,LEO
46048,STARLINK-1527,2020,95.59,260.0,+,53.05,Active,1,LEO,USA,USA,Commercial,Communications,Falcon,1 46048U 20055X   25169.40744002  .00000146  00000+0  28668-4 0  9992,2 46048  53.0546 223.0297 0001180  88.2789 271.8335 15.06399432269170,15.06399432,0.000118,LEO
46051,STARLINK-1540,2020,95.59,260.0,+,53.05,Active,1,LEO,USA,USA,Commercial,Communications,Falcon,1 46051U 20055AA  25169.44061313 -.00000036  00000+0  16477-4 0  9991,2 46051  53.0532 222.8778 0001236  79.1201 280.9927 15.06406116269211,15.06406116,0.0001236,LEO
46052,STARLINK-1541,2020,95.59,260.0,+,53.05,Active,1,LEO,USA,USA,Commercial,Communications,Falcon,1 46052U 20055AB  25169.42586627  .00000793  00000+0  72119-4 0  9994,2 46052  53.0531 222.9436 0001177  89.0685 271.0439 15.06398867269170,15.06398867,0.0001177,LEO
46053,STARLINK-1543,2020,95.59,260.0,+,53.05,Active,1,LEO,USA,USA,Commercial,Communications,Falcon,1 46053U 20055AC  25169.42956263  .00004587  00000+0  32652-3 0  9994,2 46053  53.0525 222.9273 0001278  88.3719 271.7417 15.06410949269208,15.06410949,0.0001278,LEO
46054,STARLINK-1548,2020,95.59,260.0,+,53.05,Active,1,LEO,USA,USA,Commercial,Communications,Falcon,1 46054U 20055AD  25169.43692569 -.00000290  00000+0 -60609-6 0  9997,2 46054  53.0525 222.8953 0001215  91.5497 268.5631 15.06393212269208,15.06393212,0.0001215,LEO
46055,STARLINK-1554,2020,95.59,260.0,+,53.05,Active,1,LEO,USA,USA,Commercial,Communications,Falcon,1 46055U 20055AE  25169.42218161 -.00000548  00000+0 -17899-4 0  9996,2 46055  53.0553 222.9595 0001485  96.4233 263.6925 15.06398156269208,15.06398156,0.0001485,LEO
